ONEWEB-0656             
1 55817U 23029X   24190.87810020  .00000069  00000+0  13829-3 0  9994
2 55817  87.9198  55.3302 0001559 104.7049 255.4257 13.20770420 67653
ONEWEB-0658             
1 55819U 23029Z   24190.93937810  .00000070  00000+0  14282-3 0  9996
2 55819  87.9147  85.8499 0001990  58.6116 301.5211 13.19729181 65506
ONEWEB-0660             
1 55820U 23029AA  24191.15514371 -.00000144  00000+0 -42373-3 0  9992
2 55820  87.8952  70.5364 0002309  71.9148 288.2233 13.14502596 67096
ONEWEB-0661             
1 55821U 23029AB  24190.96168488  .00000304  00000+0  78548-3 0  9994
2 55821  87.8953  70.6422 0002335  76.4674 283.6715 13.14505706 66344
ONEWEB-0662             
1 55822U 23029AC  24190.92043825 -.00000144  00000+0 -42207-3 0  9995
2 55822  87.8954  70.6580 0002115  71.5282 288.6077 13.14500762 66385
ONEWEB-0663             
1 55823U 23029AD  24191.17382577  .00000043  00000+0  74424-4 0  9997
2 55823  87.9197  55.3318 0002143  73.0926 287.0442 13.20791544 68364
ONEWEB-0664             
1 55824U 23029AE  24191.16848653 -.00000251  00000+0 -65023-3 0  9996
2 55824  87.9197  55.3464 0002293  87.5653 272.5743 13.20772194 68374
